start=new Date('2022-03-20T00:00:00.000Z').valueOf();
sats=[{"OBJECT_ID":"2022-001AT","SEMIMAJOR_AXIS":"6901.222","GP_ID":"199187744","REV_AT_EPOCH":"366","INCLINATION":"53.2172","RA_OF_ASC_NODE":"211.9569","MEAN_ANOMALY":"133.6327","MEAN_MOTION_DOT":"-0.00664116","PERIAPSIS":"521.980","EPOCH":"2022-03-19T22:00:01.999584","ARG_OF_PERICENTER":"54.7345","BSTAR":"-0.03827100000000","TIME_SYSTEM":"UTC","CENTER_NAME":"EARTH","MEAN_MOTION_DDOT":"0.0000000000000","DECAY_DATE":null,"COUNTRY_CODE":"US","CLASSIFICATION_TYPE":"U","OBJECT_NAME":"STARLINK-3326","PERIOD":"95.093","RCS_SIZE":"LARGE","FILE":"3366144","OBJECT_TYPE":"PAYLOAD","TLE_LINE1":"1 50844U 22001AT  22078.91668981 -.00664116  00000-0 -38271-1 0  9991","NORAD_CAT_ID":"50844","ELEMENT_SET_NO":"999","APOAPSIS":"524.193","MEAN_MOTION":"15.14306508","LAUNCH_DATE":"2022-01-06","TLE_LINE2":"2 50844  53.2172 211.9569 0001603  54.7345 133.6327 15.14306508  3667","MEAN_ELEMENT_THEORY":"SGP4","EPHEMERIS_TYPE":"0","SITE":"AFETR","REF_FRAME":"TEME","ECCENTRICITY":"0.00016030"},{"GP_ID":"199188495","OBJECT_ID":"2022-001AU","SEMIMAJOR_AXIS":"6898.874","RA_OF_ASC_NODE":"211.9575","REV_AT_EPOCH":"365","INCLINATION":"53.2172","MEAN_MOTION_DOT":"-0.00667845","EPOCH":"2022-03-19T22:00:01.999584","PERIAPSIS":"519.848","ARG_OF_PERICENTER":"89.3490","MEAN_ANOMALY":"207.4114","TIME_SYSTEM":"UTC","CENTER_NAME":"EARTH","BSTAR":"-0.03766600000000","FILE":"3366144","RCS_SIZE":"LARGE","OBJECT_TYPE":"PAYLOAD","DECAY_DATE":null,"COUNTRY_CODE":"US","MEAN_MOTION_DDOT":"0.0000000000000","OBJECT_NAME":"STARLINK-3230","CLASSIFICATION_TYPE":"U","PERIOD":"95.045","APOAPSIS":"521.630","ELEMENT_SET_NO":"999","MEAN_MOTION":"15.15079534","LAUNCH_DATE":"2022-01-06","TLE_LINE2":"2 50845  53.2172 211.9575 0001292  89.3490 207.4114 15.15079534  3654","MEAN_ELEMENT_THEORY":"SGP4","TLE_LINE1":"1 50845U 22001AU  22078.91668981 -.00667845  00000-0 -37666-1 0  9991","NORAD_CAT_ID":"50845","REF_FRAME":"TEME","ECCENTRICITY":"0.00012920","EPHEMERIS_TYPE":"0","SITE":"AFETR"},{"MEAN_ANOMALY":"150.4985","EPOCH":"2022-03-19T22:00:01.999584","PERIAPSIS":"521.630","ARG_OF_PERICENTER":"56.2068","MEAN_MOTION_DOT":"-0.00664818","INCLINATION":"53.2172","REV_AT_EPOCH":"365","RA_OF_ASC_NODE":"211.9569","SEMIMAJOR_AXIS":"6900.865","OBJECT_ID":"2022-001AV","GP_ID":"199188720","SITE":"AFETR","EPHEMERIS_TYPE":"0","ECCENTRICITY":"0.00015950","REF_FRAME":"TEME","TLE_LINE1":"1 50846U 22001AV  22078.91668981 -.00664818  00000-0 -38187-1 0  9998","NORAD_CAT_ID":"50846","TLE_LINE2":"2 50846  53.2172 211.9569 0001595  56.2068 150.4985 15.14423803  3652","MEAN_ELEMENT_THEORY":"SGP4","ELEMENT_SET_NO":"999","APOAPSIS":"523.831","LAUNCH_DATE":"2022-01-06","MEAN_MOTION":"15.14423803","PERIOD":"95.086","MEAN_MOTION_DDOT":"0.0000000000000","DECAY_DATE":null,"COUNTRY_CODE":"US","CLASSIFICATION_TYPE":"U","OBJECT_NAME":"STARLINK-3308","RCS_SIZE":"LARGE","FILE":"3366144","OBJECT_TYPE":"PAYLOAD","BSTAR":"-0.03818700000000","CENTER_NAME":"EARTH","TIME_SYSTEM":"UTC"},{"EPOCH":"2022-03-19T22:00:01.999584","PERIAPSIS":"524.077","ARG_OF_PERICENTER":"42.9508","MEAN_MOTION_DOT":"-0.00663140","MEAN_ANOMALY":"34.6501","RA_OF_ASC_NODE":"211.9555","INCLINATION":"53.2171","REV_AT_EPOCH":"365","GP_ID":"199187494","SEMIMAJOR_AXIS":"6903.356","OBJECT_ID":"2022-001AW","ECCENTRICITY":"0.00016570","REF_FRAME":"TEME","SITE":"AFETR","EPHEMERIS_TYPE":"0","MEAN_ELEMENT_THEORY":"SGP4","TLE_LINE2":"2 50847  53.2171 211.9555 0001657  42.9508  34.6501 15.13604466  3659","ELEMENT_SET_NO":"999","APOAPSIS":"526.364","LAUNCH_DATE":"2022-01-06","MEAN_MOTION":"15.13604466","TLE_LINE1":"1 50847U 22001AW  22078.91668981 -.00663140  00000-0 -38977-1 0  9993","NORAD_CAT_ID":"50847","FILE":"3366144","RCS_SIZE":"LARGE","OBJECT_TYPE":"PAYLOAD","PERIOD":"95.137","MEAN_MOTION_DDOT":"0.0000000000000","DECAY_DATE":null,"COUNTRY_CODE":"US","OBJECT_NAME":"STARLINK-3319","CLASSIFICATION_TYPE":"U","CENTER_NAME":"EARTH","TIME_SYSTEM":"UTC","BSTAR":"-0.03897700000000"},{"OBJECT_NAME":"STARLINK-3315","CLASSIFICATION_TYPE":"U","MEAN_MOTION_DDOT":"0.0000000000000","DECAY_DATE":null,"COUNTRY_CODE":"US","PERIOD":"95.078","FILE":"3366144","RCS_SIZE":"LARGE","OBJECT_TYPE":"PAYLOAD","BSTAR":"-0.03811400000000","TIME_SYSTEM":"UTC","CENTER_NAME":"EARTH","EPHEMERIS_TYPE":"0","SITE":"AFETR","REF_FRAME":"TEME","ECCENTRICITY":"0.00016530","NORAD_CAT_ID":"50848","TLE_LINE1":"1 50848U 22001AX  22078.91668981 -.00665707  00000-0 -38114-1 0  9998","MEAN_MOTION":"15.14541211","LAUNCH_DATE":"2022-01-06","ELEMENT_SET_NO":"999","APOAPSIS":"523.514","TLE_LINE2":"2 50848  53.2172 211.9567 0001653  51.9099 173.0981 15.14541211  3654","MEAN_ELEMENT_THEORY":"SGP4","OBJECT_ID":"2022-001AX","SEMIMAJOR_AXIS":"6900.509","GP_ID":"199188245","MEAN_ANOMALY":"173.0981","MEAN_MOTION_DOT":"-0.00665707","ARG_OF_PERICENTER":"51.9099","PERIAPSIS":"521.233","EPOCH":"2022-03-19T22:00:01.999584","REV_AT_EPOCH":"365","INCLINATION":"53.2172","RA_OF_ASC_NODE":"211.9567"},{"GP_ID":"199187995","OBJECT_ID":"2022-001AY","SEMIMAJOR_AXIS":"6901.578","RA_OF_ASC_NODE":"211.9569","REV_AT_EPOCH":"366","INCLINATION":"53.2172","MEAN_MOTION_DOT":"-0.00663302","EPOCH":"2022-03-19T22:00:01.999584","PERIAPSIS":"522.309","ARG_OF_PERICENTER":"51.7578","MEAN_ANOMALY":"118.2364","TIME_SYSTEM":"UTC","CENTER_NAME":"EARTH","BSTAR":"-0.03834800000000","RCS_SIZE":"LARGE","FILE":"3366144","OBJECT_TYPE":"PAYLOAD","DECAY_DATE":null,"MEAN_MOTION_DDOT":"0.0000000000000","COUNTRY_CODE":"US","CLASSIFICATION_TYPE":"U","OBJECT_NAME":"STARLINK-3311","PERIOD":"95.100","APOAPSIS":"524.578","ELEMENT_SET_NO":"999","LAUNCH_DATE":"2022-01-06","MEAN_MOTION":"15.14189140","MEAN_ELEMENT_THEORY":"SGP4","TLE_LINE2":"2 50849  53.2172 211.9569 0001644  51.7578 118.2364 15.14189140  3663","TLE_LINE1":"1 50849U 22001AY  22078.91668981 -.00663302  00000-0 -38348-1 0  9997","NORAD_CAT_ID":"50849","REF_FRAME":"TEME","ECCENTRICITY":"0.00016440","EPHEMERIS_TYPE":"0","SITE":"AFETR"},{"REF_FRAME":"TEME","ECCENTRICITY":"0.00039790","EPHEMERIS_TYPE":"0","SITE":"AFETR","MEAN_MOTION":"15.73247976","LAUNCH_DATE":"2022-01-06","ELEMENT_SET_NO":"999","APOAPSIS":"352.300","TLE_LINE2":"2 50850  53.2167 202.5962 0003979   6.0299 147.1413 15.73247976  3717","MEAN_ELEMENT_THEORY":"SGP4","NORAD_CAT_ID":"50850","TLE_LINE1":"1 50850U 22001AZ  22078.91668981 -.00061221  00000-0 -43381-3 0  9996","FILE":"3366144","RCS_SIZE":"LARGE","OBJECT_TYPE":"PAYLOAD","OBJECT_NAME":"STARLINK-3312","CLASSIFICATION_TYPE":"U","COUNTRY_CODE":"US","DECAY_DATE":null,"MEAN_MOTION_DDOT":"0.0000000000000","PERIOD":"91.530","TIME_SYSTEM":"UTC","CENTER_NAME":"EARTH","BSTAR":"-0.00043381000000","MEAN_MOTION_DOT":"-0.00061221","ARG_OF_PERICENTER":"6.0299","EPOCH":"2022-03-19T22:00:01.999584","PERIAPSIS":"346.946","MEAN_ANOMALY":"147.1413","RA_OF_ASC_NODE":"202.5962","REV_AT_EPOCH":"371","INCLINATION":"53.2167","GP_ID":"199188220","OBJECT_ID":"2022-001AZ","SEMIMAJOR_AXIS":"6727.758"},{"MEAN_ANOMALY":"188.4708","MEAN_MOTION_DOT":"-0.00666569","PERIAPSIS":"520.920","EPOCH":"2022-03-19T22:00:01.999584","ARG_OF_PERICENTER":"54.8049","REV_AT_EPOCH":"365","INCLINATION":"53.2172","RA_OF_ASC_NODE":"211.9566","OBJECT_ID":"2022-001BA","SEMIMAJOR_AXIS":"6900.152","GP_ID":"199186994","EPHEMERIS_TYPE":"0","SITE":"AFETR","REF_FRAME":"TEME","ECCENTRICITY":"0.00015900","TLE_LINE1":"1 50851U 22001BA  22078.91668981 -.00666569  00000-0 -38040-1 0  9997","NORAD_CAT_ID":"50851","APOAPSIS":"523.114","ELEMENT_SET_NO":"999","MEAN_MOTION":"15.14658631","LAUNCH_DATE":"2022-01-06","MEAN_ELEMENT_THEORY":"SGP4","TLE_LINE2":"2 50851  53.2172 211.9566 0001590  54.8049 188.4708 15.14658631  3656","MEAN_MOTION_DDOT":"0.0000000000000","DECAY_DATE":null,"COUNTRY_CODE":"US","OBJECT_NAME":"STARLINK-3314","CLASSIFICATION_TYPE":"U","PERIOD":"95.071","OBJECT_TYPE":"PAYLOAD","FILE":"3366144","RCS_SIZE":"LARGE","BSTAR":"-0.03804000000000","TIME_SYSTEM":"UTC","CENTER_NAME":"EARTH"},{"RA_OF_ASC_NODE":"338.2003","REV_AT_EPOCH":"1074","INCLINATION":"53.2147","MEAN_MOTION_DOT":"0.00012757","EPOCH":"2022-03-19T22:00:01.999584","PERIAPSIS":"347.755","ARG_OF_PERICENTER":"12.8137","MEAN_ANOMALY":"288.6020","GP_ID":"199159781","OBJECT_ID":"2022-005A","SEMIMAJOR_AXIS":"6727.907","ELEMENT_SET_NO":"999","APOAPSIS":"351.789","LAUNCH_DATE":"2022-01-19","MEAN_MOTION":"15.73195985","TLE_LINE2":"2 51104  53.2147 338.2003 0002998  12.8137 288.6020 15.73195985 10745","MEAN_ELEMENT_THEORY":"SGP4","TLE_LINE1":"1 51104U 22005A   22078.91668981  .00012757  00000-0  95192-4 0  9999","NORAD_CAT_ID":"51104","REF_FRAME":"TEME","ECCENTRICITY":"0.00029980","EPHEMERIS_TYPE":"0","SITE":"AFETR","TIME_SYSTEM":"UTC","CENTER_NAME":"EARTH","BSTAR":"0.00009519200000","RCS_SIZE":"LARGE","FILE":"3365961","OBJECT_TYPE":"PAYLOAD","DECAY_DATE":null,"COUNTRY_CODE":"US","MEAN_MOTION_DDOT":"0.0000000000000","CLASSIFICATION_TYPE":"U","OBJECT_NAME":"STARLINK-3366","PERIOD":"91.533"},{"SEMIMAJOR_AXIS":"6727.679","OBJECT_ID":"2022-005B","GP_ID":"199188749","MEAN_ANOMALY":"282.9417","ARG_OF_PERICENTER":"11.5357","EPOCH":"2022-03-19T22:00:01.999584","PERIAPSIS":"347.458","MEAN_MOTION_DOT":"-0.00085707","INCLINATION":"53.2160","REV_AT_EPOCH":"372","RA_OF_ASC_NODE":"338.2123","PERIOD":"91.529","CLASSIFICATION_TYPE":"U","OBJECT_NAME":"STARLINK-3350","COUNTRY_CODE":"US","DECAY_DATE":null,"MEAN_MOTION_DDOT":"0.0000000000000","FILE":"3366144","OBJECT_TYPE":"PAYLOAD","RCS_SIZE":"LARGE","BSTAR":"-0.00061028000000","CENTER_NAME":"EARTH","TIME_SYSTEM":"UTC","SITE":"AFETR","EPHEMERIS_TYPE":"0","ECCENTRICITY":"0.00031000","REF_FRAME":"TEME","NORAD_CAT_ID":"51105","TLE_LINE1":"1 51105U 22005B   22078.91668981 -.00085707  00000-0 -61028-3 0  9997","MEAN_ELEMENT_THEORY":"SGP4","TLE_LINE2":"2 51105  53.2160 338.2123 0003100  11.5357 282.9417 15.73275799  3729","MEAN_MOTION":"15.73275799","LAUNCH_DATE":"2022-01-19","APOAPSIS":"351.630","ELEMENT_SET_NO":"999"}];
